GSAT0213 (GALILEO 17)
1 41861U 16069C   25355.81840095  .00000004  00000+0  00000+0 0  9999
2 41861  55.3872 106.0020 0002735 282.3014  77.6427  1.70474953 56495